NORAD_CAT_ID,OBJECT_NAME,OBJECT_TYPE,EPOCH,MEAN_MOTION,ECCENTRICITY,INCLINATION,RA_OF_ASC_NODE,ARG_OF_PERICENTER,MEAN_ANOMALY,BSTAR,MEAN_MOTION_DOT,MEAN_MOTION_DDOT,TLE_LINE0,TLE_LINE1,TLE_LINE2,SEMIMAJOR_AXIS,PERIOD,APOGEE,PERIGEE,DECAYED
54809.0,STARLINK-5414,PAYLOAD,2024-03-14 05:07:53,15.0883834,0.0001582,53.2188,45.461,87.4568,272.6605,3.163e-06,-2.38e-06,0.0,0 STARLINK-5414,1 54809U 22175BD  24074.21381123 -.00000238  00000-0  31630-5 0  9993,2 54809  53.2188  45.4610 0001582  87.4568 272.6605 15.08838340 68450,6917.885,95.438,540.845,538.656,0.0
54809.0,STARLINK-5414,PAYLOAD,2024-03-14 08:18:39,15.08839067,0.0001574,53.2186,44.8656,91.7107,268.4065,1.7995e-05,-2e-08,0.0,0 STARLINK-5414,1 54809U 22175BD  24074.34629193 -.00000002  00000-0  17995-4 0  9995,2 54809  53.2186  44.8656 0001574  91.7107 268.4065 15.08839067 70632,6917.883,95.438,540.837,538.659,0.0
54809.0,STARLINK-5414,PAYLOAD,2024-03-15 08:09:26,15.08846543,0.0001328,53.2174,40.4029,85.9385,274.1759,6.4393e-05,7.37e-06,0.0,0 STARLINK-5414,1 54809U 22175BD  24075.33988618  .00000737  00000-0  64393-4 0  9993,2 54809  53.2174  40.4029 0001328  85.9385 274.1759 15.08846543 68622,6917.86,95.437,540.644,538.807,0.0
54809.0,STARLINK-5414,PAYLOAD,2024-03-16 04:49:27,15.08839684,0.0001362,53.2177,36.5376,85.1233,274.9915,9.3593e-05,1.202e-05,0.0,0 STARLINK-5414,1 54809U 22175BD  24076.20101208  .00001202  00000-0  93593-4 0  9994,2 54809  53.2177  36.5376 0001362  85.1233 274.9915 15.08839684 68752,6917.881,95.438,540.689,538.804,0.0
54809.0,STARLINK-5414,PAYLOAD,2024-03-16 06:24:50,15.08839264,0.0001396,53.2179,36.237,88.4283,271.6869,9.2764e-05,1.189e-05,0.0,0 STARLINK-5414,1 54809U 22175BD  24076.26725198  .00001189  00000-0  92764-4 0  9993,2 54809  53.2179  36.2370 0001396  88.4283 271.6869 15.08839264 70921,6917.883,95.438,540.713,538.782,0.0
54809.0,STARLINK-5414,PAYLOAD,2024-03-17 04:40:15,15.0882124,0.0001636,53.2194,32.0735,86.9718,273.1461,0.00030069,4.498e-05,0.0,0 STARLINK-5414,1 54809U 22175BD  24077.19461841  .00004498  00000-0  30069-3 0  9993,2 54809  53.2194  32.0735 0001636  86.9718 273.1461 15.08821240 68905,6917.938,95.439,540.935,538.671,0.0
54809.0,STARLINK-5414,PAYLOAD,2024-03-17 20:34:05,15.08840551,0.0001614,53.2189,29.105,74.7122,285.4048,8.6866e-05,1.095e-05,0.0,0 STARLINK-5414,1 54809U 22175BD  24077.85701363  .00001095  00000-0  86866-4 0  9999,2 54809  53.2189  29.1050 0001614  74.7122 285.4048 15.08840551 69001,6917.879,95.438,540.86,538.627,0.0
54809.0,STARLINK-5414,PAYLOAD,2024-03-18 02:55:38,15.0884577,0.000165,53.2184,27.9175,72.5514,287.5659,9.173e-05,1.172e-05,0.0,0 STARLINK-5414,1 54809U 22175BD  24078.12196995  .00001172  00000-0  91730-4 0  9991,2 54809  53.2184  27.9175 0001650  72.5514 287.5659 15.08845770 71205,6917.863,95.437,540.869,538.586,0.0
54809.0,STARLINK-5414,PAYLOAD,2024-03-18 20:24:53,15.08834273,0.0001856,53.2185,24.6493,63.9458,296.1725,9.2831e-05,1.189e-05,0.0,0 STARLINK-5414,1 54809U 22175BD  24078.85061705  .00001189  00000-0  92831-4 0  9992,2 54809  53.2185  24.6493 0001856  63.9458 296.1725 15.08834273 71310,6917.898,95.438,541.047,538.479,0.0
54809.0,STARLINK-5414,PAYLOAD,2024-03-19 02:46:25,15.08839667,0.0001275,53.2186,23.4551,94.3876,265.7262,1.9297e-05,1.9e-07,0.0,0 STARLINK-5414,1 54809U 22175BD  24079.11557468  .00000019  00000-0  19297-4 0  9994,2 54809  53.2186  23.4551 0001275  94.3876 265.7262 15.08839667 69193,6917.881,95.438,540.628,538.864,0.0
54809.0,STARLINK-5414,PAYLOAD,2024-03-19 05:57:11,15.08844481,0.0001269,53.2182,22.8581,96.7688,263.3448,6.6249e-05,7.67e-06,0.0,0 STARLINK-5414,1 54809U 22175BD  24079.24805056  .00000767  00000-0  66249-4 0  9996,2 54809  53.2182  22.8581 0001269  96.7688 263.3448 15.08844481 69218,6917.867,95.437,540.61,538.854,0.0
54809.0,STARLINK-5414,PAYLOAD,2024-03-20 01:01:49,15.0884036,0.0001241,53.2186,19.2867,105.6342,254.4787,-8.9232e-05,-1.708e-05,0.0,0 STARLINK-5414,1 54809U 22175BD  24080.04293769 -.00001708  00000-0 -89232-4 0  9993,2 54809  53.2186  19.2867 0001241 105.6342 254.4787 15.08840360 69338,6917.879,95.438,540.603,538.886,0.0
54809.0,STARLINK-5414,PAYLOAD,2024-03-20 05:47:58,15.08843745,0.0001389,53.2191,18.3956,116.626,243.4875,-4.7748e-05,-1.048e-05,0.0,0 STARLINK-5414,1 54809U 22175BD  24080.24165431 -.00001048  00000-0 -47748-4 0  9992,2 54809  53.2191  18.3956 0001389 116.6260 243.4875 15.08843745 71527,6917.869,95.437,540.695,538.773,0.0
54809.0,STARLINK-5414,PAYLOAD,2024-03-21 12:00:19,15.08821987,0.0001261,53.2187,12.7471,103.2592,256.8541,0.00050104,7.691e-05,0.0,0 STARLINK-5414,1 54809U 22175BD  24081.50022281  .00007691  00000-0  50104-3 0  9994,2 54809  53.2187  12.7471 0001261 103.2592 256.8541 15.08821987 69553,6917.935,95.439,540.673,538.928,0.0
54809.0,STARLINK-5414,PAYLOAD,2024-03-21 18:21:51,15.08835852,0.0002279,53.2191,11.5559,87.653,272.4723,0.00011349,1.518e-05,0.0,0 STARLINK-5414,1 54809U 22175BD  24081.76518459  .00001518  00000-0  11349-3 0  9999,2 54809  53.2191  11.5559 0002279  87.6530 272.4723 15.08835852 71756,6917.893,95.438,541.335,538.181,0.0
54809.0,STARLINK-5414,PAYLOAD,2024-03-22 02:18:46,15.08853105,0.0001346,53.2193,10.0693,104.016,256.0982,0.00020973,3.053e-05,0.0,0 STARLINK-5414,1 54809U 22175BD  24082.09636890  .00003053  00000-0  20973-3 0  9995,2 54809  53.2193  10.0693 0001346 104.0160 256.0982 15.08853105 69649,6917.84,95.437,540.636,538.774,0.0
54809.0,STARLINK-5414,PAYLOAD,2024-03-22 19:48:01,15.08847622,0.0001345,53.22,6.8029,98.2833,261.8312,8.6136e-05,1.083e-05,0.0,0 STARLINK-5414,1 54809U 22175BD  24082.82501478  .00001083  00000-0  86136-4 0  9994,2 54809  53.2200   6.8029 0001345  98.2833 261.8312 15.08847622 69754,6917.857,95.437,540.653,538.792,0.0
54809.0,STARLINK-5414,PAYLOAD,2024-03-23 22:49:35,15.08838206,0.0001697,53.2195,1.7518,73.5674,286.5505,4.7771e-05,4.72e-06,0.0,0 STARLINK-5414,1 54809U 22175BD  24083.95110268  .00000472  00000-0  47771-4 0  9995,2 54809  53.2195   1.7518 0001697  73.5674 286.5505 15.08838206 72089,6917.886,95.438,540.925,538.577,0.0
54809.0,STARLINK-5414,PAYLOAD,2024-03-24 03:35:43,15.0885653,0.0001685,53.2192,0.8558,93.8945,266.224,0.00018153,2.603e-05,0.0,0 STARLINK-5414,1 54809U 22175BD  24084.14980917  .00002603  00000-0  18153-3 0  9992,2 54809  53.2192   0.8558 0001685  93.8945 266.2240 15.08856530 69956,6917.83,95.437,540.861,538.529,0.0
54809.0,STARLINK-5414,PAYLOAD,2024-03-24 11:32:40,15.08829094,0.000238,53.2202,359.3664,81.38,278.7462,-0.0001669,-2.943e-05,0.0,0 STARLINK-5414,1 54809U 22175BD  24084.48102404 -.00002943  00000-0 -16690-3 0  9999,2 54809  53.2202 359.3664 0002380  81.3800 278.7462 15.08829094 70000,6917.914,95.438,541.425,538.132,0.0
54809.0,STARLINK-5414,PAYLOAD,2024-03-24 22:40:22,15.0883405,0.0002076,53.2195,357.287,78.059,282.0635,-7.631e-05,-1.502e-05,0.0,0 STARLINK-5414,1 54809U 22175BD  24084.94470548 -.00001502  00000-0 -76310-4 0  9993,2 54809  53.2195 357.2870 0002076  78.0590 282.0635 15.08834050 72233,6917.899,95.438,541.2,538.327,0.0
54809.0,STARLINK-5414,PAYLOAD,2024-03-25 03:26:31,15.08848613,0.0001445,53.219,356.3939,85.7853,274.3304,0.00014124,1.961e-05,0.0,0 STARLINK-5414,1 54809U 22175BD  24085.14341552  .00001961  00000-0  14124-3 0  9999,2 54809  53.2190 356.3939 0001445  85.7853 274.3304 15.08848613 70101,6917.854,95.437,540.719,538.719,0.0
54809.0,STARLINK-5414,PAYLOAD,2024-03-25 22:31:08,15.08854462,0.0001435,53.219,352.8247,94.9409,265.1747,0.00015446,2.172e-05,0.0,0 STARLINK-5414,1 54809U 22175BD  24085.93829320  .00002172  00000-0  15446-3 0  9993,2 54809  53.2190 352.8247 0001435  94.9409 265.1747 15.08854462 72382,6917.836,95.437,540.694,538.708,0.0
54809.0,STARLINK-5414,PAYLOAD,2024-03-26 03:17:18,15.08847797,0.0001436,53.2189,351.9349,84.3297,275.7859,7.0081e-05,8.28e-06,0.0,0 STARLINK-5414,1 54809U 22175BD  24086.13701680  .00000828  00000-0  70081-4 0  9997,2 54809  53.2189 351.9349 0001436  84.3297 275.7859 15.08847797 70250,6917.857,95.437,540.715,538.728,0.0
54809.0,STARLINK-5414,PAYLOAD,2024-03-26 11:14:14,15.08834231,0.0001278,53.2204,350.4462,96.9902,263.1235,-0.00018084,-3.164e-05,0.0,0 STARLINK-5414,1 54809U 22175BD  24086.46822875 -.00003164  00000-0 -18084-3 0  9995,2 54809  53.2204 350.4462 0001278  96.9902 263.1235 15.08834231 70308,6917.898,95.438,540.647,538.879,0.0
54809.0,STARLINK-5414,PAYLOAD,2024-03-26 20:46:34,15.08817146,0.0001372,53.2199,348.6628,84.0335,276.0813,6.2591e-05,7.08e-06,0.0,0 STARLINK-5414,1 54809U 22175BD  24086.86567986  .00000708  00000-0  62591-4 0  9990,2 54809  53.2199 348.6628 0001372  84.0335 276.0813 15.08817146 70364,6917.95,95.439,540.764,538.866,0.0
54809.0,STARLINK-5414,PAYLOAD,2024-03-26 22:21:57,15.08819018,0.0001447,53.2205,348.3654,82.0756,278.04,7.7423e-05,9.44e-06,0.0,0 STARLINK-5414,1 54809U 22175BD  24086.93191929  .00000944  00000-0  77423-4 0  9990,2 54809  53.2205 348.3654 0001447  82.0756 278.0400 15.08819018 72531,6917.945,95.439,540.811,538.808,0.0
54809.0,STARLINK-5414,PAYLOAD,2024-03-26 23:57:20,15.08820008,0.0001295,53.2204,348.0674,86.7629,273.3511,9.1953e-05,1.175e-05,0.0,0 STARLINK-5414,1 54809U 22175BD  24086.99815854  .00001175  00000-0  91953-4 0  9997,2 54809  53.2204 348.0674 0001295  86.7629 273.3511 15.08820008 72543,6917.941,95.439,540.702,538.911,0.0
54809.0,STARLINK-5414,PAYLOAD,2024-03-27 20:37:20,15.08845301,0.0001306,53.2188,344.2021,86.5499,273.5642,6.9752e-05,8.23e-06,0.0,0 STARLINK-5414,1 54809U 22175BD  24087.85926276  .00000823  00000-0  69752-4 0  9995,2 54809  53.2188 344.2021 0001306  86.5499 273.5642 15.08845301 70519,6917.864,95.437,540.633,538.826,0.0
54809.0,STARLINK-5414,PAYLOAD,2024-03-27 22:12:43,15.08846304,0.0001317,53.2192,343.9049,86.2077,273.9066,8.356e-05,1.042e-05,0.0,0 STARLINK-5414,1 54809U 22175BD  24087.92550227  .00001042  00000-0  83560-4 0  9999,2 54809  53.2192 343.9049 0001317  86.2077 273.9066 15.08846304 72689,6917.861,95.437,540.637,538.815,0.0
